[{"OBJECT_NAME":"MALLIGYONG-1","OBJECT_ID":"2023-179A","EPOCH":"2026-03-09T23:34:09.992640","MEAN_MOTION":15.22003697,"ECCENTRICITY":0.00093214,"INCLINATION":97.316,"RA_OF_ASC_NODE":313.2885,"ARG_OF_PERICENTER":28.0346,"MEAN_ANOMALY":332.1391,"EPHEMERIS_TYPE":0,"CLASSIFICATION_TYPE":"U","NORAD_CAT_ID":58400,"ELEMENT_SET_NO":999,"REV_AT_EPOCH":12766,"BSTAR":0.00019369443,"MEAN_MOTION_DOT":4.359e-5,"MEAN_MOTION_DDOT":0},{"OBJECT_NAME":"CZ-4C R\/B","OBJECT_ID":"2020-103C","EPOCH":"2026-03-09T22:29:51.645120","MEAN_MOTION":15.00867026,"ECCENTRICITY":0.00868382,"INCLINATION":98.3813,"RA_OF_ASC_NODE":98.2397,"ARG_OF_PERICENTER":305.3689,"MEAN_ANOMALY":53.9441,"EPHEMERIS_TYPE":0,"CLASSIFICATION_TYPE":"U","NORAD_CAT_ID":47304,"ELEMENT_SET_NO":999,"REV_AT_EPOCH":28329,"BSTAR":0.00023135286,"MEAN_MOTION_DOT":3.11e-5,"MEAN_MOTION_DDOT":0}]
